*******************************************************************************
Ephemeris / WWW_USER Mon Jul 15 19:06:17 2024 Pasadena, USA      / Horizons    
*******************************************************************************
Target body name: (2018 RD5)                      {source: JPL#11}
Center body name: Earth (399)                     {source: DE441}
Center-site name: Gemini South Obs., Cerro Pachon
*******************************************************************************
Start time      : A.D. 2018-Oct-16 23:02:00.0000 UT      
Stop  time      : A.D. 2018-Oct-17 09:54:00.0000 UT      
Step-size       : 1 minutes
*******************************************************************************
Target pole/equ : undefined
Target radii    : undefined                                                    
Center geodetic : 289.2634, -30.2406227, 2.71233  {E-lon(deg),Lat(deg),Alt(km)}
Center cylindric: 289.2634,5517.21435,-3194.81213 {E-lon(deg),Dxy(km),Dz(km)}
Center pole/equ : ITRF93                          {East-longitude positive}
Center radii    : 6378.137, 6378.137, 6356.752 km {Equator_a, b, pole_c}       
Target primary  : Sun
Vis. interferer : MOON (R_eq= 1737.400) km        {source: DE441}
Rel. light bend : Sun                             {source: DE441}
Rel. lght bnd GM: 1.3271E+11 km^3/s^2                                          
Small-body perts: Yes                             {source: SB441-N16}
Atmos refraction: NO (AIRLESS)
RA format       : HMS
Time format     : CAL 
Calendar mode   : Mixed Julian/Gregorian
RTS-only print  : NO       
EOP file        : eop.240715.p241008                                           
EOP coverage    : DATA-BASED 1962-JAN-20 TO 2024-JUL-15. PREDICTS-> 2024-OCT-07
Units conversion: 1 au= 149597870.700 km, c= 299792.458 km/s, 1 day= 86400.0 s 
Table cut-offs 1: Elevation (-90.0deg=NO ),Airmass (>38.000=NO), Daylight (YES)
Table cut-offs 2: Solar elongation (  0.0,180.0=NO ),Local Hour Angle( 0.0=NO )
Table cut-offs 3: RA/DEC angular rate (     0.0=NO )                           
*******************************************************************************
Initial IAU76/J2000 heliocentric ecliptic osculating elements (au, days, deg.):
  EPOCH=  2458378.5 ! 2018-Sep-17.00 (TDB)         Residual RMS= .55339        
   EC= .2891632988519429   QR= 1.009650912138325   TP= 2458360.6433297051      
   OM= 171.0145363394364   W=  163.7983400129293   IN= 8.474307805886117       
  Equivalent ICRF heliocentric cartesian coordinates (au, au/d):
   X= 1.017757009008053E+00  Y=-8.967367621791844E-02  Z=-4.840656937149759E-02
  VX= 3.309922676318766E-03 VY= 1.832358809606965E-02 VZ= 4.854018792897502E-03
Asteroid physical parameters (km, seconds, rotational period in hours):        
   GM= n.a.                RAD= n.a.               ROTPER= n.a.                
   H= 25.9                 G= .150                 B-V= n.a.                   
                           ALBEDO= n.a.            STYP= n.a.                  
*******************************************************************************
 Date__(UT)__HR:MN     R.A._________(ICRF)_________DEC
******************************************************
$$SOE
 2018-Oct-17 07:14     03 09 48.198881 -26 32 14.57403
 2018-Oct-17 07:15     03 09 48.164843 -26 32 14.28326
 2018-Oct-17 07:16     03 09 48.130827 -26 32 13.99200
 2018-Oct-17 07:17     03 09 48.096834 -26 32 13.70026
 2018-Oct-17 07:18     03 09 48.062863 -26 32 13.40804
 2018-Oct-17 07:19     03 09 48.028915 -26 32 13.11533
 2018-Oct-17 07:20     03 09 47.994991 -26 32 12.82215
 2018-Oct-17 07:21     03 09 47.961091 -26 32 12.52848
 2018-Oct-17 07:22     03 09 47.927215 -26 32 12.23433
 2018-Oct-17 07:23     03 09 47.893364 -26 32 11.93970
 2018-Oct-17 07:24     03 09 47.859538 -26 32 11.64460
 2018-Oct-17 07:25     03 09 47.825736 -26 32 11.34901
 2018-Oct-17 07:26     03 09 47.791960 -26 32 11.05295
 2018-Oct-17 07:27     03 09 47.758210 -26 32 10.75641
 2018-Oct-17 07:28     03 09 47.724487 -26 32 10.45940
 2018-Oct-17 07:29     03 09 47.690789 -26 32 10.16191
 2018-Oct-17 07:30     03 09 47.657119 -26 32 09.86395
 2018-Oct-17 07:31     03 09 47.623476 -26 32 09.56551
 2018-Oct-17 07:32     03 09 47.589860 -26 32 09.26660
 2018-Oct-17 07:33     03 09 47.556273 -26 32 08.96721
 2018-Oct-17 07:34     03 09 47.522713 -26 32 08.66736
 2018-Oct-17 07:35     03 09 47.489182 -26 32 08.36703
 2018-Oct-17 07:36     03 09 47.455680 -26 32 08.06624
 2018-Oct-17 07:37     03 09 47.422207 -26 32 07.76497
 2018-Oct-17 07:38     03 09 47.388763 -26 32 07.46324
 2018-Oct-17 07:39     03 09 47.355350 -26 32 07.16104
 2018-Oct-17 07:40     03 09 47.321966 -26 32 06.85837
 2018-Oct-17 07:41     03 09 47.288613 -26 32 06.55524
 2018-Oct-17 07:42     03 09 47.255291 -26 32 06.25164
 2018-Oct-17 07:43     03 09 47.222000 -26 32 05.94757
 2018-Oct-17 07:44     03 09 47.188740 -26 32 05.64305
 2018-Oct-17 07:45     03 09 47.155512 -26 32 05.33806
 2018-Oct-17 07:46     03 09 47.122316 -26 32 05.03261
 2018-Oct-17 07:47     03 09 47.089153 -26 32 04.72669
 2018-Oct-17 07:48     03 09 47.056022 -26 32 04.42032
 2018-Oct-17 07:49     03 09 47.022925 -26 32 04.11349
 2018-Oct-17 07:50     03 09 46.989861 -26 32 03.80620
 2018-Oct-17 07:51     03 09 46.956830 -26 32 03.49846
 2018-Oct-17 07:52     03 09 46.923834 -26 32 03.19026
 2018-Oct-17 07:53     03 09 46.890872 -26 32 02.88160
 2018-Oct-17 07:54     03 09 46.857945 -26 32 02.57249
 2018-Oct-17 07:55     03 09 46.825052 -26 32 02.26292
 2018-Oct-17 07:56     03 09 46.792195 -26 32 01.95290
 2018-Oct-17 07:57     03 09 46.759374 -26 32 01.64243
 2018-Oct-17 07:58     03 09 46.726588 -26 32 01.33151
 2018-Oct-17 07:59     03 09 46.693839 -26 32 01.02014
 2018-Oct-17 08:00     03 09 46.661126 -26 32 00.70833
 2018-Oct-17 08:01     03 09 46.628450 -26 32 00.39606
 2018-Oct-17 08:02     03 09 46.595811 -26 32 00.08335
 2018-Oct-17 08:03     03 09 46.563210 -26 31 59.77019
 2018-Oct-17 08:04     03 09 46.530647 -26 31 59.45659
 2018-Oct-17 08:05     03 09 46.498121 -26 31 59.14254
 2018-Oct-17 08:06     03 09 46.465635 -26 31 58.82805
 2018-Oct-17 08:07     03 09 46.433186 -26 31 58.51312
 2018-Oct-17 08:08     03 09 46.400777 -26 31 58.19775
 2018-Oct-17 08:09     03 09 46.368407 -26 31 57.88194
 2018-Oct-17 08:10     03 09 46.336077 -26 31 57.56569
 2018-Oct-17 08:11     03 09 46.303787 -26 31 57.24901
 2018-Oct-17 08:12     03 09 46.271537 -26 31 56.93189
 2018-Oct-17 08:13     03 09 46.239328 -26 31 56.61433
 2018-Oct-17 08:14     03 09 46.207159 -26 31 56.29634
 2018-Oct-17 08:15     03 09 46.175032 -26 31 55.97791
 2018-Oct-17 08:16     03 09 46.142946 -26 31 55.65906
 2018-Oct-17 08:17     03 09 46.110902 -26 31 55.33977
 2018-Oct-17 08:18     03 09 46.078900 -26 31 55.02006
 2018-Oct-17 08:19     03 09 46.046940 -26 31 54.69991
 2018-Oct-17 08:20     03 09 46.015023 -26 31 54.37934
 2018-Oct-17 08:21     03 09 45.983149 -26 31 54.05835
 2018-Oct-17 08:22     03 09 45.951318 -26 31 53.73693
 2018-Oct-17 08:23     03 09 45.919531 -26 31 53.41508
 2018-Oct-17 08:24     03 09 45.887787 -26 31 53.09281
 2018-Oct-17 08:25     03 09 45.856088 -26 31 52.77012
 2018-Oct-17 08:26     03 09 45.824433 -26 31 52.44701
 2018-Oct-17 08:27     03 09 45.792823 -26 31 52.12349
 2018-Oct-17 08:28     03 09 45.761257 -26 31 51.79954
 2018-Oct-17 08:29     03 09 45.729738 -26 31 51.47518
 2018-Oct-17 08:30     03 09 45.698263 -26 31 51.15040
 2018-Oct-17 08:31     03 09 45.666835 -26 31 50.82521
 2018-Oct-17 08:32     03 09 45.635452 -26 31 50.49960
 2018-Oct-17 08:33     03 09 45.604117 -26 31 50.17359
 2018-Oct-17 08:34     03 09 45.572828 -26 31 49.84716
 2018-Oct-17 08:35     03 09 45.541585 -26 31 49.52033
 2018-Oct-17 08:36     03 09 45.510391 -26 31 49.19308
 2018-Oct-17 08:37     03 09 45.479243 -26 31 48.86543
 2018-Oct-17 08:38     03 09 45.448144 -26 31 48.53738
 2018-Oct-17 08:39     03 09 45.417093 -26 31 48.20892
 2018-Oct-17 08:40 A   03 09 45.386090 -26 31 47.88006
 2018-Oct-17 08:41 A   03 09 45.355136 -26 31 47.55080
 2018-Oct-17 08:42 A   03 09 45.324231 -26 31 47.22113
 2018-Oct-17 08:43 A   03 09 45.293375 -26 31 46.89107
 2018-Oct-17 08:44 A   03 09 45.262568 -26 31 46.56061
 2018-Oct-17 08:45 A   03 09 45.231812 -26 31 46.22976
 2018-Oct-17 08:46 A   03 09 45.201105 -26 31 45.89851
 2018-Oct-17 08:47 A   03 09 45.170449 -26 31 45.56686
 2018-Oct-17 08:48 A   03 09 45.139844 -26 31 45.23483
 2018-Oct-17 08:49 A   03 09 45.109289 -26 31 44.90240
 2018-Oct-17 08:50 A   03 09 45.078786 -26 31 44.56959
 2018-Oct-17 08:51 A   03 09 45.048334 -26 31 44.23639
 2018-Oct-17 08:52 A   03 09 45.017933 -26 31 43.90280
 2018-Oct-17 08:53 A   03 09 44.987585 -26 31 43.56882
 2018-Oct-17 08:54 A   03 09 44.957289 -26 31 43.23446
 2018-Oct-17 08:55 A   03 09 44.927045 -26 31 42.89972
 2018-Oct-17 08:56 A   03 09 44.896854 -26 31 42.56460
 2018-Oct-17 08:57 A   03 09 44.866716 -26 31 42.22910
 2018-Oct-17 08:58 A   03 09 44.836632 -26 31 41.89322
 2018-Oct-17 08:59 A   03 09 44.806601 -26 31 41.55697
 2018-Oct-17 09:00 A   03 09 44.776623 -26 31 41.22034
 2018-Oct-17 09:01 A   03 09 44.746700 -26 31 40.88333
 2018-Oct-17 09:02 A   03 09 44.716831 -26 31 40.54596
 2018-Oct-17 09:03 A   03 09 44.687017 -26 31 40.20821
 2018-Oct-17 09:04 A   03 09 44.657257 -26 31 39.87009
 2018-Oct-17 09:05 A   03 09 44.627553 -26 31 39.53161
 2018-Oct-17 09:06 A   03 09 44.597904 -26 31 39.19276
 2018-Oct-17 09:07 A   03 09 44.568310 -26 31 38.85354
 2018-Oct-17 09:08 A   03 09 44.538773 -26 31 38.51396
 2018-Oct-17 09:09 A   03 09 44.509291 -26 31 38.17402
 2018-Oct-17 09:10 N   03 09 44.479866 -26 31 37.83372
 2018-Oct-17 09:11 N   03 09 44.450497 -26 31 37.49306
 2018-Oct-17 09:12 N   03 09 44.421185 -26 31 37.15204
 2018-Oct-17 09:13 N   03 09 44.391930 -26 31 36.81066
 2018-Oct-17 09:14 N   03 09 44.362733 -26 31 36.46893
 2018-Oct-17 09:15 N   03 09 44.333593 -26 31 36.12685
 2018-Oct-17 09:16 N   03 09 44.304511 -26 31 35.78442
